CTC1_L_00608007-03
1 60308U 24415T   26037.47810185  .00000000  00000+0  00000-0 0  9994
2 60308  55.0000 180.0000 0000000   0.0000 144.0000  5.03557253    13
CTC1_L_00608007-04
1 60309U 23730QV  26037.47810185  .00000000  00000+0  00000-0 0  9994
2 60309  55.0000 180.0000 0000000   0.0000 180.0000  5.03557253    14
CTC1_L_00608007-05
1 60310U 23398VJ  26037.47810185  .00000000  00000+0  00000-0 0  9996
2 60310  55.0000 180.0000 0000000   0.0000 216.0000  5.03557253    16
CTC1_L_00608007-06
1 60311U 24545AL  26037.47810185  .00000000  00000+0  00000-0 0  9992
2 60311  55.0000 180.0000 0000000   0.0000 252.0000  5.03557253    17
CTC1_L_00608007-07
1 60312U 26168ML  26037.47810185  .00000000  00000+0  00000-0 0  9996
2 60312  55.0000 180.0000 0000000   0.0000 288.0000  5.03557253    17
CTC1_L_00608007-08
1 60313U 26049HZ  26037.47810185  .00000000  00000+0  00000-0 0  9995
2 60313  55.0000 180.0000 0000000   0.0000 324.0000  5.03557253    19
CTC1_L_00608007-09
1 60314U 26006JB  26037.47810185  .00000000  00000+0  00000-0 0  9999
2 60314  55.0000 180.0000 0000000   0.0000   0.0000  5.03557253    11
CTC1_L_00608007-10
1 60315U 25126QV  26037.47810185  .00000000  00000+0  00000-0 0  9992
2 60315  55.0000 180.0000 0000000   0.0000  36.0000  5.03557253    11
CTC1_L_00608008-01
1 60316U 22711HF  26037.47810185  .00000000  00000+0  00000-0 0  9990
2 60316  55.0000 210.0000 0000000   0.0000  84.0000  5.03557253    19
CTC1_L_00608008-02
1 60317U 25151U   26037.47810185  .00000000  00000+0  00000-0 0  9992
2 60317  55.0000 210.0000 0000000   0.0000 120.0000  5.03557253    11
CTC1_L_00608008-03
1 60318U 26663JI  26037.47810185  .00000000  00000+0  00000-0 0  9992
2 60318  55.0000 210.0000 0000000   0.0000 156.0000  5.03557253    11
CTC1_L_00608008-04
1 60319U 24911AR  26037.47810185  .00000000  00000+0  00000-0 0  9997
2 60319  55.0000 210.0000 0000000   0.0000 192.0000  5.03557253    12
CTC1_L_00608008-05
1 60320U 24978ZX  26037.47810185  .00000000  00000+0  00000-0 0  9992
2 60320  55.0000 210.0000 0000000   0.0000 228.0000  5.03557253    14
CTC1_L_00608008-06
1 60321U 23362TK  26037.47810185  .00000000  00000+0  00000-0 0  9999
2 60321  55.0000 210.0000 0000000   0.0000 264.0000  5.03557253    15
CTC1_L_00608008-07
1 60322U 25239SV  26037.47810185  .00000000  00000+0  00000-0 0  9995
2 60322  55.0000 210.0000 0000000   0.0000 300.0000  5.03557253    17
CTC1_L_00608008-08
1 60323U 23989DZ  26037.47810185  .00000000  00000+0  00000-0 0  9996
2 60323  55.0000 210.0000 0000000   0.0000 336.0000  5.03557253    17
CTC1_L_00608008-09
1 60324U 22857PD  26037.47810185  .00000000  00000+0  00000-0 0  9990
2 60324  55.0000 210.0000 0000000   0.0000  12.0000  5.03557253    19
CTC1_L_00608008-10
1 60325U 22904MU  26037.47810185  .00000000  00000+0  00000-0 0  9994
2 60325  55.0000 210.0000 0000000   0.0000  48.0000  5.03557253    19
CTC1_L_00608009-01
1 60326U 25411CF  26037.47810185  .00000000  00000+0  00000-0 0  9991
2 60326  55.0000 240.0000 0000000   0.0000  96.0000  5.03557253    16
CTC1_L_00608009-02
1 60327U 24628HD  26037.47810185  .00000000  00000+0  00000-0 0  9991
2 60327  55.0000 240.0000 0000000   0.0000 132.0000  5.03557253    18
CTC1_L_00608009-03
1 60328U 23406RK  26037.47810185  .00000000  00000+0  00000-0 0  9995
2 60328  55.0000 240.0000 0000000   0.0000 168.0000  5.03557253    18
CTC1_L_00608009-04
1 60329U 26346IP  26037.47810185  .00000000  00000+0  00000-0 0  9992
2 60329  55.0000 240.0000 0000000   0.0000 204.0000  5.03557253    10
CTC1_L_00608009-05
1 60330U 22854OX  26037.47810185  .00000000  00000+0  00000-0 0  9994
2 60330  55.0000 240.0000 0000000   0.0000 240.0000  5.03557253    12
CTC1_L_00608009-06
1 60331U 22731CE  26037.47810185  .00000000  00000+0  00000-0 0  9999
2 60331  55.0000 240.0000 0000000   0.0000 276.0000  5.03557253    12
CTC1_L_00608009-07
1 60332U 26660LG  26037.47810185  .00000000  00000+0  00000-0 0  9995
2 60332  55.0000 240.0000 0000000   0.0000 312.0000  5.03557253    14
CTC1_L_00608009-08
1 60333U 22307AX  26037.47810185  .00000000  00000+0  00000-0 0  9990
2 60333  55.0000 240.0000 0000000   0.0000 348.0000  5.03557253    14
CTC1_L_00608009-09
1 60334U 22103QY  26037.47810185  .00000000  00000+0  00000-0 0  9995
2 60334  55.0000 240.0000 0000000   0.0000  24.0000  5.03557253    16
CTC1_L_00608009-10
1 60335U 24044WC  26037.47810185  .00000000  00000+0  00000-0 0  9992
2 60335  55.0000 240.0000 0000000   0.0000  60.0000  5.03557253    17
CTC1_L_00608010-01
1 60336U 23415BF  26037.47810185  .00000000  00000+0  00000-0 0  9994
2 60336  55.0000 270.0000 0000000   0.0000 108.0000  5.03557253    14
CTC1_L_00608010-02
1 60337U 23874FP  26037.47810185  .00000000  00000+0  00000-0 0  9994
2 60337  55.0000 270.0000 0000000   0.0000 144.0000  5.03557253    15
CTC1_L_00608010-03
1 60338U 26195CZ  26037.47810185  .00000000  00000+0  00000-0 0  9994
2 60338  55.0000 270.0000 0000000   0.0000 180.0000  5.03557253    16
CTC1_L_00608010-04
1 60339U 26603SG  26037.47810185  .00000000  00000+0  00000-0 0  9999
2 60339  55.0000 270.0000 0000000   0.0000 216.0000  5.03557253    17
CTC1_L_00608010-05
1 60340U 25968FK  26037.47810185  .00000000  00000+0  00000-0 0  9994
2 60340  55.0000 270.0000 0000000   0.0000 252.0000  5.03557253    19
CTC1_L_00608010-06
1 60341U 26416TM  26037.47810185  .00000000  00000+0  00000-0 0  9994
2 60341  55.0000 270.0000 0000000   0.0000 288.0000  5.03557253    19
CTC1_L_00608010-07
1 60342U 23168GW  26037.47810185  .00000000  00000+0  00000-0 0  9996
2 60342  55.0000 270.0000 0000000   0.0000 324.0000  5.03557253    11
CTC1_L_00608010-08
1 60343U 26960MQ  26037.47810185  .00000000  00000+0  00000-0 0  9990
2 60343  55.0000 270.0000 0000000   0.0000   0.0000  5.03557253    13
CTC1_L_00608010-09
1 60344U 22457EC  26037.47810185  .00000000  00000+0  00000-0 0  9998
2 60344  55.0000 270.0000 0000000   0.0000  36.0000  5.03557253    13
CTC1_L_00608010-10
1 60345U 22465CO  26037.47810185  .00000000  00000+0  00000-0 0  9998
2 60345  55.0000 270.0000 0000000   0.0000  72.0000  5.03557253    14
CTC1_L_00608011-01
1 60346U 26161UK  26037.47810185  .00000000  00000+0  00000-0 0  9996
2 60346  55.0000 300.0000 0000000   0.0000 120.0000  5.03557253    13
CTC1_L_00608011-02
1 60347U 25747ER  26037.47810185  .00000000  00000+0  00000-0 0  9996
2 60347  55.0000 300.0000 0000000   0.0000 156.0000  5.03557253    13
CTC1_L_00608011-03
1 60348U 26057SB  26037.47810185  .00000000  00000+0  00000-0 0  9992
2 60348  55.0000 300.0000 0000000   0.0000 192.0000  5.03557253    14
CTC1_L_00608011-04
1 60349U 25261OA  26037.47810185  .00000000  00000+0  00000-0 0  9999
2 60349  55.0000 300.0000 0000000   0.0000 228.0000  5.03557253    15
CTC1_L_00608011-05
1 60350U 23234UZ  26037.47810185  .00000000  00000+0  00000-0 0  9999
2 60350  55.0000 300.0000 0000000   0.0000 264.0000  5.03557253    17
CTC1_L_00608011-06
1 60351U 22276WO  26037.47810185  .00000000  00000+0  00000-0 0  9995
2 60351  55.0000 300.0000 0000000   0.0000 300.0000  5.03557253    19
CTC1_L_00608011-07
1 60352U 26672QG  26037.47810185  .00000000  00000+0  00000-0 0  9990
2 60352  55.0000 300.0000 0000000   0.0000 336.0000  5.03557253    19
CTC1_L_00608011-08
1 60353U 25396OM  26037.47810185  .00000000  00000+0  00000-0 0  9993
2 60353  55.0000 300.0000 0000000   0.0000  12.0000  5.03557253    11
CTC1_L_00608011-09
1 60354U 24486SS  26037.47810185  .00000000  00000+0  00000-0 0  9993
2 60354  55.0000 300.0000 0000000   0.0000  48.0000  5.03557253    11
CTC1_L_00608011-10
1 60355U 24220Y   26037.47810185  .00000000  00000+0  00000-0 0  9990
2 60355  55.0000 300.0000 0000000   0.0000  84.0000  5.03557253    12
CTC1_L_00608012-01
1 60356U 22573QI  26037.47810185  .00000000  00000+0  00000-0 0  9990
2 60356  55.0000 330.0000 0000000   0.0000 132.0000  5.03557253    10
CTC1_L_00608012-02
1 60357U 23250BK  26037.47810185  .00000000  00000+0  00000-0 0  9994
2 60357  55.0000 330.0000 0000000   0.0000 168.0000  5.03557253    10
CTC1_L_00608012-03
1 60358U 22181YI  26037.47810185  .00000000  00000+0  00000-0 0  9997
2 60358  55.0000 330.0000 0000000   0.0000 204.0000  5.03557253    12
CTC1_L_00608012-04
1 60359U 24514KG  26037.47810185  .00000000  00000+0  00000-0 0  9990
2 60359  55.0000 330.0000 0000000   0.0000 240.0000  5.03557253    13
CTC1_L_00608012-05
1 60360U 26494WM  26037.47810185  .00000000  00000+0  00000-0 0  9991
2 60360  55.0000 330.0000 0000000   0.0000 276.0000  5.03557253    14
CTC1_L_00608012-06
1 60361U 25102EQ  26037.47810185  .00000000  00000+0  00000-0 0  9997
2 60361  55.0000 330.0000 0000000   0.0000 312.0000  5.03557253    16
CTC1_L_00608012-07
1 60362U 23473ZG  26037.47810185  .00000000  00000+0  00000-0 0  9997
2 60362  55.0000 330.0000 0000000   0.0000 348.0000  5.03557253    16
CTC1_L_00608012-08
1 60363U 24386LY  26037.47810185  .00000000  00000+0  00000-0 0  9992
2 60363  55.0000 330.0000 0000000   0.0000  24.0000  5.03557253    18
CTC1_L_00608012-09
1 60364U 26189XG  26037.47810185  .00000000  00000+0  00000-0 0  9996
2 60364  55.0000 330.0000 0000000   0.0000  60.0000  5.03557253    19
CTC1_L_00608012-10
1 60365U 26661TK  26037.47810185  .00000000  00000+0  00000-0 0  9992
2 60365  55.0000 330.0000 0000000   0.0000  96.0000  5.03557253    19
